[
    {
        "Altitude(m)": 554405.4245793166,
        "Argument of Periapsis(deg)": 0.0,
        "Eccentricity": 0.0,
        "Inclination(deg)": 53.0,
        "Latitude(deg)": 25.65219711026384,
        "Longitude(deg)": -73.8747956390069,
        "Mean Anomaly(deg)": 32.7273,
        "RAAN(deg)": 5.0,
        "Satellite Name": "Starlink Shell 1 24",
        "Satellite Number": 24,
        "Semi-Major Axis(m)": 6931778.249405717,
        "Time(s)": 0
    },
    {
        "Altitude(m)": 554467.105087209,
        "Argument of Periapsis(deg)": 0.00034857847951123687,
        "Eccentricity": 0.0,
        "Inclination(deg)": 53.0,
        "Latitude(deg)": 26.120926144402,
        "Longitude(deg)": -73.45117646886385,
        "Mean Anomaly(deg)": 33.35413120355672,
        "RAAN(deg)": 4.9994812299225275,
        "Satellite Name": "Starlink Shell 1 24",
        "Satellite Number": 24,
        "Semi-Major Axis(m)": 6931778.249405717,
        "Time(s)": 10
    },
    {
        "Altitude(m)": 554530.285306703,
        "Argument of Periapsis(deg)": 0.0006971569590224737,
        "Eccentricity": 0.0,
        "Inclination(deg)": 53.0,
        "Latitude(deg)": 26.588114284693923,
        "Longitude(deg)": -73.02384165558065,
        "Mean Anomaly(deg)": 33.980962407113424,
        "RAAN(deg)": 4.998962459845054,
        "Satellite Name": "Starlink Shell 1 24",
        "Satellite Number": 24,
        "Semi-Major Axis(m)": 6931778.249405717,
        "Time(s)": 20
    },
    {
        "Altitude(m)": 554594.9151011038,
        "Argument of Periapsis(deg)": 0.0010457354385337105,
        "Eccentricity": 0.0,
        "Inclination(deg)": 53.0,
        "Latitude(deg)": 27.053717671751077,
        "Longitude(deg)": -72.5926965409135,
        "Mean Anomaly(deg)": 34.60779361067014,
        "RAAN(deg)": 4.998443689767582,
        "Satellite Name": "Starlink Shell 1 24",
        "Satellite Number": 24,
        "Semi-Major Axis(m)": 6931778.249405717,
        "Time(s)": 30
    },
    {
        "Altitude(m)": 554660.9437876327,
        "Argument of Periapsis(deg)": 0.0013943139180449475,
        "Eccentricity": 0.0,
        "Inclination(deg)": 53.0,
        "Latitude(deg)": 27.5176915019229,
        "Longitude(deg)": -72.15764465251821,
        "Mean Anomaly(deg)": 35.234624814226855,
        "RAAN(deg)": 4.997924919690108,
        "Satellite Name": "Starlink Shell 1 24",
        "Satellite Number": 24,
        "Semi-Major Axis(m)": 6931778.249405717,
        "Time(s)": 40
    },
    {
        "Altitude(m)": 554728.3201645445,
        "Argument of Periapsis(deg)": 0.0017428923975561844,
        "Eccentricity": 0.0,
        "Inclination(deg)": 53.0,
        "Latitude(deg)": 27.979989998607184,
        "Longitude(deg)": -71.71858870555845,
        "Mean Anomaly(deg)": 35.86145601778357,
        "RAAN(deg)": 4.997406149612636,
        "Satellite Name": "Starlink Shell 1 24",
        "Satellite Number": 24,
        "Semi-Major Axis(m)": 6931778.249405717,
        "Time(s)": 50
    },
    {
        "Altitude(m)": 554796.9925384633,
        "Argument of Periapsis(deg)": 0.002091470877067421,
        "Eccentricity": 0.0,
        "Inclination(deg)": 53.0,
        "Latitude(deg)": 28.440566383060414,
        "Longitude(deg)": -71.2754300938639,
        "Mean Anomaly(deg)": 36.488287221340286,
        "RAAN(deg)": 4.996887379535163,
        "Satellite Name": "Starlink Shell 1 24",
        "Satellite Number": 24,
        "Semi-Major Axis(m)": 6931778.249405717,
        "Time(s)": 60
    },
    {
        "Altitude(m)": 554866.9087518953,
        "Argument of Periapsis(deg)": 0.0024400493565786582,
        "Eccentricity": 0.0,
        "Inclination(deg)": 53.0,
        "Latitude(deg)": 28.899372844722368,
        "Longitude(deg)": -70.82806838373004,
        "Mean Anomaly(deg)": 37.115118424897005,
        "RAAN(deg)": 4.99636860945769,
        "Satellite Name": "Starlink Shell 1 24",
        "Satellite Number": 24,
        "Semi-Major Axis(m)": 6931778.249405717,
        "Time(s)": 70
    },
    {
        "Altitude(m)": 554938.0162109663,
        "Argument of Periapsis(deg)": 0.002788627836089895,
        "Eccentricity": 0.0,
        "Inclination(deg)": 53.0,
        "Latitude(deg)": 29.35636051107049,
        "Longitude(deg)": -70.37640232346713,
        "Mean Anomaly(deg)": 37.74194962845372,
        "RAAN(deg)": 4.995849839380218,
        "Satellite Name": "Starlink Shell 1 24",
        "Satellite Number": 24,
        "Semi-Major Axis(m)": 6931778.249405717,
        "Time(s)": 80
    },
    {
        "Altitude(m)": 555010.2619133136,
        "Argument of Periapsis(deg)": 0.0031372063156011316,
        "Eccentricity": 0.0,
        "Inclination(deg)": 53.0,
        "Latitude(deg)": 29.81147941702644,
        "Longitude(deg)": -69.92032934320578,
        "Mean Anomaly(deg)": 38.36878083201044,
        "RAAN(deg)": 4.995331069302745,
        "Satellite Name": "Starlink Shell 1 24",
        "Satellite Number": 24,
        "Semi-Major Axis(m)": 6931778.249405717,
        "Time(s)": 90
    },
    {
        "Altitude(m)": 555083.5924761276,
        "Argument of Periapsis(deg)": 0.0034857847951123688,
        "Eccentricity": 0.0,
        "Inclination(deg)": 53.0,
        "Latitude(deg)": 30.26467847393818,
        "Longitude(deg)": -69.45974505809744,
        "Mean Anomaly(deg)": 38.99561203556715,
        "RAAN(deg)": 4.994812299225272,
        "Satellite Name": "Starlink Shell 1 24",
        "Satellite Number": 24,
        "Semi-Major Axis(m)": 6931778.249405717,
        "Time(s)": 100
    },
    {
        "Altitude(m)": 555157.9541643666,
        "Argument of Periapsis(deg)": 0.003834363274623606,
        "Eccentricity": 0.0,
        "Inclination(deg)": 53.0,
        "Latitude(deg)": 30.715905438165613,
        "Longitude(deg)": -68.99454428806655,
        "Mean Anomaly(deg)": 39.62244323912387,
        "RAAN(deg)": 4.994293529147799,
        "Satellite Name": "Starlink Shell 1 24",
        "Satellite Number": 24,
        "Semi-Major Axis(m)": 6931778.249405717,
        "Time(s)": 110
    },
    {
        "Altitude(m)": 555233.292919063,
        "Argument of Periapsis(deg)": 0.004182941754134842,
        "Eccentricity": 0.0,
        "Inclination(deg)": 53.0,
        "Latitude(deg)": 31.1651068793038,
        "Longitude(deg)": -68.52462056867151,
        "Mean Anomaly(deg)": 40.24927444268058,
        "RAAN(deg)": 4.993774759070326,
        "Satellite Name": "Starlink Shell 1 24",
        "Satellite Number": 24,
        "Semi-Major Axis(m)": 6931778.249405717,
        "Time(s)": 120
    },
    {
        "Altitude(m)": 555309.5543857736,
        "Argument of Periapsis(deg)": 0.004531520233646079,
        "Eccentricity": 0.0,
        "Inclination(deg)": 53.0,
        "Latitude(deg)": 31.61222814808085,
        "Longitude(deg)": -68.04986566626637,
        "Mean Anomaly(deg)": 40.87610564623729,
        "RAAN(deg)": 4.993255988992854,
        "Satellite Name": "Starlink Shell 1 24",
        "Satellite Number": 24,
        "Semi-Major Axis(m)": 6931778.249405717,
        "Time(s)": 130
    },
    {
        "Altitude(m)": 555386.6839431368,
        "Argument of Periapsis(deg)": 0.0048800987131573164,
        "Eccentricity": 0.0,
        "Inclination(deg)": 53.0,
        "Latitude(deg)": 32.057213343972585,
        "Longitude(deg)": -67.57017061067332,
        "Mean Anomaly(deg)": 41.50293684979401,
        "RAAN(deg)": 4.992737218915381,
        "Satellite Name": "Starlink Shell 1 24",
        "Satellite Number": 24,
        "Semi-Major Axis(m)": 6931778.249405717,
        "Time(s)": 140
    },
    {
        "Altitude(m)": 555464.626731483,
        "Argument of Periapsis(deg)": 0.005228677192668553,
        "Eccentricity": 0.0,
        "Inclination(deg)": 53.0,
        "Latitude(deg)": 32.50000528258422,
        "Longitude(deg)": -67.08542521997956,
        "Mean Anomaly(deg)": 42.12976805335072,
        "RAAN(deg)": 4.9922184488379076,
        "Satellite Name": "Starlink Shell 1 24",
        "Satellite Number": 24,
        "Semi-Major Axis(m)": 6931778.249405717,
        "Time(s)": 150
    },
    {
        "Altitude(m)": 555543.3276815454,
        "Argument of Periapsis(deg)": 0.00557725567217979,
        "Eccentricity": 0.0,
        "Inclination(deg)": 53.0,
        "Latitude(deg)": 32.94054546285289,
        "Longitude(deg)": -66.59551763070812,
        "Mean Anomaly(deg)": 42.756599256907435,
        "RAAN(deg)": 4.991699678760435,
        "Satellite Name": "Starlink Shell 1 24",
        "Satellite Number": 24,
        "Semi-Major Axis(m)": 6931778.249405717,
        "Time(s)": 160
    },
    {
        "Altitude(m)": 555622.7315432231,
        "Argument of Periapsis(deg)": 0.0059258341516910265,
        "Eccentricity": 0.0,
        "Inclination(deg)": 53.0,
        "Latitude(deg)": 33.37877403413135,
        "Longitude(deg)": -66.10033534663077,
        "Mean Anomaly(deg)": 43.383430460464155,
        "RAAN(deg)": 4.991180908682963,
        "Satellite Name": "Starlink Shell 1 24",
        "Satellite Number": 24,
        "Semi-Major Axis(m)": 6931778.249405717,
        "Time(s)": 170
    },
    {
        "Altitude(m)": 555702.7829143817,
        "Argument of Periapsis(deg)": 0.006274412631202263,
        "Eccentricity": 0.0,
        "Inclination(deg)": 53.0,
        "Latitude(deg)": 33.814629763222825,
        "Longitude(deg)": -65.59976478089764,
        "Mean Anomaly(deg)": 44.01026166402087,
        "RAAN(deg)": 4.990662138605489,
        "Satellite Name": "Starlink Shell 1 24",
        "Satellite Number": 24,
        "Semi-Major Axis(m)": 6931778.249405717,
        "Time(s)": 180
    }
]